IRIDIUM 136             
1 42962U 17061H   23287.84312470  .00000606  00000+0  20931-3 0  9998
2 42962  86.3941  73.2706 0002128  85.6902 274.4537 14.34219063314894
